start=new Date('2023-04-22T00:00:00.000Z').valueOf();
sats=[{"MEAN_MOTION":"15.08847255","FILE":"3891716","APOAPSIS":"540.654","MEAN_MOTION_DDOT":"0.0000000000000","TIME_SYSTEM":"UTC","RA_OF_ASC_NODE":"335.5980","MEAN_ANOMALY":"276.6762","SITE":"AFETR","REF_FRAME":"TEME","EPOCH":"2023-04-21T19:52:04.278720","NORAD_CAT_ID":"51105","BSTAR":"0.00019870000000","ELEMENT_SET_NO":"999","OBJECT_TYPE":"PAYLOAD","OBJECT_NAME":"STARLINK-3350","DECAY_DATE":null,"MEAN_ELEMENT_THEORY":"SGP4","EPHEMERIS_TYPE":"0","REV_AT_EPOCH":"6993","OBJECT_ID":"2022-005B","TLE_LINE2":"2 51105  53.2174 335.5980 0001346  83.4383 276.6762 15.08847255 69930","PERIAPSIS":"538.792","CLASSIFICATION_TYPE":"U","TLE_LINE1":"1 51105U 22005B   23111.82782730  .00002876  00000-0  19870-3 0  9997","GP_ID":"230529916","SEMIMAJOR_AXIS":"6917.858","COUNTRY_CODE":"US","ARG_OF_PERICENTER":"83.4383","ECCENTRICITY":"0.00013460","INCLINATION":"53.2174","LAUNCH_DATE":"2022-01-19","CENTER_NAME":"EARTH","PERIOD":"95.437","MEAN_MOTION_DOT":"0.00002876","RCS_SIZE":"LARGE"},{"CLASSIFICATION_TYPE":"U","GP_ID":"230528670","TLE_LINE1":"1 51106U 22005C   23111.87198881  .00003543  00000-0  24049-3 0  9997","COUNTRY_CODE":"US","SEMIMAJOR_AXIS":"6917.856","INCLINATION":"53.2152","ARG_OF_PERICENTER":"88.3415","ECCENTRICITY":"0.00009030","LAUNCH_DATE":"2022-01-19","CENTER_NAME":"EARTH","MEAN_MOTION_DOT":"0.00003543","PERIOD":"95.437","RCS_SIZE":"LARGE","OBJECT_TYPE":"PAYLOAD","OBJECT_NAME":"STARLINK-3176","MEAN_ELEMENT_THEORY":"SGP4","DECAY_DATE":null,"EPHEMERIS_TYPE":"0","REV_AT_EPOCH":"6993","OBJECT_ID":"2022-005C","TLE_LINE2":"2 51106  53.2152 335.4062 0000903  88.3415 271.7681 15.08847991 69938","PERIAPSIS":"539.096","RA_OF_ASC_NODE":"335.4062","MEAN_ANOMALY":"271.7681","SITE":"AFETR","REF_FRAME":"TEME","EPOCH":"2023-04-21T20:55:39.833184","NORAD_CAT_ID":"51106","BSTAR":"0.00024049000000","ELEMENT_SET_NO":"999","MEAN_MOTION":"15.08847991","FILE":"3891716","APOAPSIS":"540.346","MEAN_MOTION_DDOT":"0.0000000000000","TIME_SYSTEM":"UTC"},{"CLASSIFICATION_TYPE":"U","SEMIMAJOR_AXIS":"6917.879","TLE_LINE1":"1 51107U 22005D   23111.67235170 -.00000602  00000-0 -19738-4 0  9994","GP_ID":"230528415","COUNTRY_CODE":"US","INCLINATION":"53.2174","ARG_OF_PERICENTER":"99.6708","ECCENTRICITY":"0.00006680","LAUNCH_DATE":"2022-01-19","CENTER_NAME":"EARTH","MEAN_MOTION_DOT":"-0.00000602","PERIOD":"95.438","RCS_SIZE":"LARGE","OBJECT_TYPE":"PAYLOAD","OBJECT_NAME":"STARLINK-3368","MEAN_ELEMENT_THEORY":"SGP4","DECAY_DATE":null,"EPHEMERIS_TYPE":"0","REV_AT_EPOCH":"6977","OBJECT_ID":"2022-005D","TLE_LINE2":"2 51107  53.2174 346.2845 0000668  99.6708 260.4360 15.08840556 69771","PERIAPSIS":"539.282","RA_OF_ASC_NODE":"346.2845","MEAN_ANOMALY":"260.4360","SITE":"AFETR","REF_FRAME":"TEME","EPOCH":"2023-04-21T16:08:11.186880","NORAD_CAT_ID":"51107","BSTAR":"-0.00001973800000","ELEMENT_SET_NO":"999","MEAN_MOTION":"15.08840556","FILE":"3891716","APOAPSIS":"540.206","MEAN_MOTION_DDOT":"0.0000000000000","TIME_SYSTEM":"UTC"},{"ARG_OF_PERICENTER":"80.5438","ECCENTRICITY":"0.00009450","INCLINATION":"53.2163","TLE_LINE1":"1 51108U 22005E   23111.89038697  .00001048  00000-0  83894-4 0  9991","COUNTRY_CODE":"US","GP_ID":"230503395","SEMIMAJOR_AXIS":"6917.870","CLASSIFICATION_TYPE":"U","RCS_SIZE":"LARGE","PERIOD":"95.437","MEAN_MOTION_DOT":"0.00001048","LAUNCH_DATE":"2022-01-19","CENTER_NAME":"EARTH","REV_AT_EPOCH":"7104","EPHEMERIS_TYPE":"0","DECAY_DATE":null,"MEAN_ELEMENT_THEORY":"SGP4","OBJECT_TYPE":"PAYLOAD","OBJECT_NAME":"STARLINK-3362","PERIAPSIS":"539.082","TLE_LINE2":"2 51108  53.2163 335.3217 0000945  80.5438 279.5661 15.08843289 71043","OBJECT_ID":"2022-005E","MEAN_ANOMALY":"279.5661","RA_OF_ASC_NODE":"335.3217","BSTAR":"0.00008389400000","ELEMENT_SET_NO":"999","EPOCH":"2023-04-21T21:22:09.434208","NORAD_CAT_ID":"51108","SITE":"AFETR","REF_FRAME":"TEME","MEAN_MOTION":"15.08843289","TIME_SYSTEM":"UTC","MEAN_MOTION_DDOT":"0.0000000000000","FILE":"3891626","APOAPSIS":"540.389"},{"RCS_SIZE":"LARGE","MEAN_MOTION_DOT":"0.00002511","PERIOD":"95.437","LAUNCH_DATE":"2022-01-19","CENTER_NAME":"EARTH","ARG_OF_PERICENTER":"80.1392","ECCENTRICITY":"0.00010450","INCLINATION":"53.2170","TLE_LINE1":"1 51109U 22005F   23111.91342336  .00002511  00000-0  17574-3 0  9990","GP_ID":"230529416","COUNTRY_CODE":"US","SEMIMAJOR_AXIS":"6917.860","CLASSIFICATION_TYPE":"U","PERIAPSIS":"539.002","TLE_LINE2":"2 51109  53.2170 335.2160 0001045  80.1392 279.9718 15.08846742 69710","OBJECT_ID":"2022-005F","REV_AT_EPOCH":"6971","EPHEMERIS_TYPE":"0","MEAN_ELEMENT_THEORY":"SGP4","DECAY_DATE":null,"OBJECT_TYPE":"PAYLOAD","OBJECT_NAME":"STARLINK-3358","BSTAR":"0.00017574000000","ELEMENT_SET_NO":"999","EPOCH":"2023-04-21T21:55:19.778304","NORAD_CAT_ID":"51109","SITE":"AFETR","REF_FRAME":"TEME","MEAN_ANOMALY":"279.9718","RA_OF_ASC_NODE":"335.2160","TIME_SYSTEM":"UTC","MEAN_MOTION_DDOT":"0.0000000000000","FILE":"3891716","APOAPSIS":"540.448","MEAN_MOTION":"15.08846742"},{"TIME_SYSTEM":"UTC","MEAN_MOTION_DDOT":"0.0000000000000","APOAPSIS":"540.549","FILE":"3891716","MEAN_MOTION":"15.08844931","ELEMENT_SET_NO":"999","BSTAR":"0.00019849000000","NORAD_CAT_ID":"51110","EPOCH":"2023-04-21T21:11:34.110816","REF_FRAME":"TEME","SITE":"AFETR","MEAN_ANOMALY":"274.8526","RA_OF_ASC_NODE":"335.3721","PERIAPSIS":"538.912","TLE_LINE2":"2 51110  53.2155 335.3721 0001183  85.2601 274.8526 15.08844931 69945","OBJECT_ID":"2022-005G","REV_AT_EPOCH":"6994","EPHEMERIS_TYPE":"0","MEAN_ELEMENT_THEORY":"SGP4","DECAY_DATE":null,"OBJECT_TYPE":"PAYLOAD","OBJECT_NAME":"STARLINK-3344","RCS_SIZE":"LARGE","PERIOD":"95.437","MEAN_MOTION_DOT":"0.00002873","LAUNCH_DATE":"2022-01-19","CENTER_NAME":"EARTH","ECCENTRICITY":"0.00011830","ARG_OF_PERICENTER":"85.2601","INCLINATION":"53.2155","COUNTRY_CODE":"US","TLE_LINE1":"1 51110U 22005G   23111.88303369  .00002873  00000-0  19849-3 0  9999","GP_ID":"230528170","SEMIMAJOR_AXIS":"6917.865","CLASSIFICATION_TYPE":"U"},{"APOAPSIS":"540.475","FILE":"3891716","MEAN_MOTION_DDOT":"0.0000000000000","TIME_SYSTEM":"UTC","MEAN_MOTION":"15.08847780","REF_FRAME":"TEME","SITE":"AFETR","NORAD_CAT_ID":"51111","EPOCH":"2023-04-21T22:09:51.075648","ELEMENT_SET_NO":"999","BSTAR":"0.00017374000000","RA_OF_ASC_NODE":"335.1718","MEAN_ANOMALY":"260.6195","OBJECT_ID":"2022-005H","TLE_LINE2":"2 51111  53.2173 335.1718 0001089  99.4920 260.6195 15.08847780 69946","PERIAPSIS":"538.968","OBJECT_NAME":"STARLINK-3173","OBJECT_TYPE":"PAYLOAD","DECAY_DATE":null,"MEAN_ELEMENT_THEORY":"SGP4","EPHEMERIS_TYPE":"0","REV_AT_EPOCH":"6994","LAUNCH_DATE":"2022-01-19","CENTER_NAME":"EARTH","MEAN_MOTION_DOT":"0.00002479","PERIOD":"95.437","RCS_SIZE":"LARGE","CLASSIFICATION_TYPE":"U","TLE_LINE1":"1 51111U 22005H   23111.92350782  .00002479  00000-0  17374-3 0  9999","GP_ID":"230528916","SEMIMAJOR_AXIS":"6917.857","COUNTRY_CODE":"US","ARG_OF_PERICENTER":"99.4920","INCLINATION":"53.2173","ECCENTRICITY":"0.00010890"},{"CLASSIFICATION_TYPE":"U","COUNTRY_CODE":"US","TLE_LINE1":"1 51112U 22005J   23111.87935054  .00000589  00000-0  55084-4 0  9996","GP_ID":"230529665","SEMIMAJOR_AXIS":"6917.874","ARG_OF_PERICENTER":"73.7612","INCLINATION":"53.2171","ECCENTRICITY":"0.00012020","CENTER_NAME":"EARTH","LAUNCH_DATE":"2022-01-19","MEAN_MOTION_DOT":"0.00000589","PERIOD":"95.437","RCS_SIZE":"LARGE","OBJECT_TYPE":"PAYLOAD","OBJECT_NAME":"STARLINK-3374","MEAN_ELEMENT_THEORY":"SGP4","DECAY_DATE":null,"EPHEMERIS_TYPE":"0","REV_AT_EPOCH":"6994","OBJECT_ID":"2022-005J","TLE_LINE2":"2 51112  53.2171 335.3712 0001202  73.7612 286.3512 15.08842042 69945","PERIAPSIS":"538.908","RA_OF_ASC_NODE":"335.3712","MEAN_ANOMALY":"286.3512","REF_FRAME":"TEME","SITE":"AFETR","NORAD_CAT_ID":"51112","EPOCH":"2023-04-21T21:06:15.886656","ELEMENT_SET_NO":"999","BSTAR":"0.00005508400000","MEAN_MOTION":"15.08842042","APOAPSIS":"540.571","FILE":"3891716","MEAN_MOTION_DDOT":"0.0000000000000","TIME_SYSTEM":"UTC"},{"MEAN_MOTION":"15.08834834","TIME_SYSTEM":"UTC","MEAN_MOTION_DDOT":"0.0000000000000","APOAPSIS":"540.669","FILE":"3891529","MEAN_ANOMALY":"278.1992","RA_OF_ASC_NODE":"338.9881","ELEMENT_SET_NO":"999","BSTAR":"0.00018372000000","NORAD_CAT_ID":"51113","EPOCH":"2023-04-21T01:45:44.564544","REF_FRAME":"TEME","SITE":"AFETR","REV_AT_EPOCH":"6981","EPHEMERIS_TYPE":"0","MEAN_ELEMENT_THEORY":"SGP4","DECAY_DATE":null,"OBJECT_TYPE":"PAYLOAD","OBJECT_NAME":"STARLINK-3372","PERIAPSIS":"538.854","TLE_LINE2":"2 51113  53.2156 338.9881 0001312  81.9149 278.1992 15.08834834 69810","OBJECT_ID":"2022-005K","INCLINATION":"53.2156","ECCENTRICITY":"0.00013120","ARG_OF_PERICENTER":"81.9149","GP_ID":"230497522","TLE_LINE1":"1 51113U 22005K   23111.07343246  .00002637  00000-0  18372-3 0  9999","SEMIMAJOR_AXIS":"6917.896","COUNTRY_CODE":"US","CLASSIFICATION_TYPE":"U","RCS_SIZE":"LARGE","PERIOD":"95.438","MEAN_MOTION_DOT":"0.00002637","LAUNCH_DATE":"2022-01-19","CENTER_NAME":"EARTH"},{"OBJECT_ID":"2022-005L","TLE_LINE2":"2 51114  53.2163 336.5253 0001189  83.8509 276.2619 15.08841498 69908","PERIAPSIS":"538.918","OBJECT_NAME":"STARLINK-3375","OBJECT_TYPE":"PAYLOAD","MEAN_ELEMENT_THEORY":"SGP4","DECAY_DATE":null,"EPHEMERIS_TYPE":"0","REV_AT_EPOCH":"6990","LAUNCH_DATE":"2022-01-19","CENTER_NAME":"EARTH","PERIOD":"95.437","MEAN_MOTION_DOT":"0.00002436","RCS_SIZE":"LARGE","CLASSIFICATION_TYPE":"U","TLE_LINE1":"1 51114U 22005L   23111.62174965  .00002436  00000-0  17105-3 0  9991","COUNTRY_CODE":"US","GP_ID":"230528671","SEMIMAJOR_AXIS":"6917.876","ECCENTRICITY":"0.00011890","INCLINATION":"53.2163","ARG_OF_PERICENTER":"83.8509","APOAPSIS":"540.563","FILE":"3891716","MEAN_MOTION_DDOT":"0.0000000000000","TIME_SYSTEM":"UTC","MEAN_MOTION":"15.08841498","REF_FRAME":"TEME","SITE":"AFETR","NORAD_CAT_ID":"51114","EPOCH":"2023-04-21T14:55:19.169760","ELEMENT_SET_NO":"999","BSTAR":"0.00017105000000","RA_OF_ASC_NODE":"336.5253","MEAN_ANOMALY":"276.2619"}];
